HIMAWARI-8              
1 40267U 14060A   24298.56863613 -.00000283  00000+0  00000+0 0  9995
2 40267   0.0088 183.0289 0001197  61.0529 134.7611  1.00271918 36730
